{"type": "FeatureCollection", "features": [ {"type": "Feature", "properties": {"norad_id": 66541, "name": "STARLINK-35796", "group": "last-30-days", "lat": 40.587549541353766, "lon": 161.7245975490911, "alt_km": 357.86938908839966, "timestamp": "2025-12-05T18:53:12.097007+00:00", "meta": {"OBJECT_NAME": "STARLINK-35796", "OBJECT_ID": "2025-265AB", "EPOCH": "2025-12-05T06:00:02.000160", "MEAN_MOTION": 15.70703047, "ECCENTRICITY": 0.00015521, "INCLINATION": 43.0003, "RA_OF_ASC_NODE": 98.1201, "ARG_OF_PERICENTER": 269.0903, "MEAN_ANOMALY": 5.9389, "EPHEMERIS_TYPE": 0, "CLASSIFICATION_TYPE": "U", "NORAD_CAT_ID": 66541, "ELEMENT_SET_NO": 999, "REV_AT_EPOCH": 379, "BSTAR": -0.016663124, "MEAN_MOTION_DOT": -0.0188895, "MEAN_MOTION_DDOT": 0}, "tle": {"line1": "1 66541U 25265AB  25339.25002315 -.01888950  00000+0 -16663-1 0  9995", "line2": "2 66541  43.0003  98.1201 0001552 269.0903   5.9389 15.70703047  3794"}}, "geometry": {"type": "Point", "coordinates": [161.7245975490911, 40.587549541353766]}}, {"type": "Feature", "properties": {"norad_id": 66542, "name": "STARLINK-35833", "group": "last-30-days", "lat": 41.07604088565302, "lon": 164.17168000073383, "alt_km": 357.7761947217423, "timestamp": "2025-12-05T18:53:12.097020+00:00", "meta": {"OBJECT_NAME": "STARLINK-35833", "OBJECT_ID": "2025-265AC", "EPOCH": "2025-12-05T06:00:02.000160", "MEAN_MOTION": 15.70705812, "ECCENTRICITY": 0.00014553, "INCLINATION": 43.0002, "RA_OF_ASC_NODE": 98.1155, "ARG_OF_PERICENTER": 266.1654, "MEAN_ANOMALY": 10.7802, "EPHEMERIS_TYPE": 0, "CLASSIFICATION_TYPE": "U", "NORAD_CAT_ID": 66542, "ELEMENT_SET_NO": 999, "REV_AT_EPOCH": 379, "BSTAR": -0.016692454, "MEAN_MOTION_DOT": -0.01892028, "MEAN_MOTION_DDOT": 0}, "tle": {"line1": "1 66542U 25265AC  25339.25002315 -.01892028  00000+0 -16692-1 0  9999", "line2": "2 66542  43.0002  98.1155 0001455 266.1654  10.7802 15.70705812  3791"}}, "geometry": {"type": "Point", "coordinates": [164.17168000073383, 41.07604088565302]}}, {"type": "Feature", "properties": {"norad_id": 66543, "name": "STARLINK-35315", "group": "last-30-days", "lat": 41.51251257901002, "lon": 166.65581031932547, "alt_km": 357.69976691310785, "timestamp": "2025-12-05T18:53:12.097032+00:00", "meta": {"OBJECT_NAME": "STARLINK-35315", "OBJECT_ID": "2025-265AD", "EPOCH": "2025-12-05T06:00:02.000160", "MEAN_MOTION": 15.70700828, "ECCENTRICITY": 0.00014756, "INCLINATION": 43.0003, "RA_OF_ASC_NODE": 98.1102, "ARG_OF_PERICENTER": 268.9361, "MEAN_ANOMALY": 9.928, "EPHEMERIS_TYPE": 0, "CLASSIFICATION_TYPE": "U", "NORAD_CAT_ID": 66543, "ELEMENT_SET_NO": 999, "REV_AT_EPOCH": 368, "BSTAR": -0.016627482, "MEAN_MOTION_DOT": -0.01885146, "MEAN_MOTION_DDOT": 0}, "tle": {"line1": "1 66543U 25265AD  25339.25002315 -.01885146  00000+0 -16627-1 0  9991", "line2": "2 66543  43.0003  98.1102 0001475 268.9361   9.9280 15.70700828  3682"}}, "geometry": {"type": "Point", "coordinates": [166.65581031932547, 41.51251257901002]}}, {"type": "Feature", "properties": {"norad_id": 66544, "name": "STARLINK-35728", "group": "last-30-days", "lat": 41.89393812598244, "lon": 169.16903128760612, "alt_km": 357.6436273126883, "timestamp": "2025-12-05T18:53:12.097042+00:00", "meta": {"OBJECT_NAME": "STARLINK-35728", "OBJECT_ID": "2025-265AE", "EPOCH": "2025-12-05T06:00:02.000160", "MEAN_MOTION": 15.70702966, "ECCENTRICITY": 0.00014458, "INCLINATION": 43.0002, "RA_OF_ASC_NODE": 98.1057, "ARG_OF_PERICENTER": 268.45, "MEAN_ANOMALY": 12.3302, "EPHEMERIS_TYPE": 0, "CLASSIFICATION_TYPE": "U", "NORAD_CAT_ID": 66544, "ELEMENT_SET_NO": 999, "REV_AT_EPOCH": 379, "BSTAR": -0.01665653, "MEAN_MOTION_DOT": -0.01888202, "MEAN_MOTION_DDOT": 0}, "tle": {"line1": "1 66544U 25265AE  25339.25002315 -.01888202  00000+0 -16657-1 0  9991", "line2": "2 66544  43.0002  98.1057 0001445 268.4500  12.3302 15.70702966  3798"}}, "geometry": {"type": "Point", "coordinates": [169.16903128760612, 41.89393812598244]}}, {"type": "Feature", "properties": {"norad_id": 66545, "name": "SHIJIAN-30A", "group": "last-30-days", "lat": 48.15773296524538, "lon": 123.85867288808907, "alt_km": 519.4869432900941, "timestamp": "2025-12-05T18:53:12.097069+00:00", "meta": {"OBJECT_NAME": "SHIJIAN-30A", "OBJECT_ID": "2025-266A", "EPOCH": "2025-12-05T07:19:52.730688", "MEAN_MOTION": 15.15418106, "ECCENTRICITY": 0.00128141, "INCLINATION": 51.7999, "RA_OF_ASC_NODE": 7.6886, "ARG_OF_PERICENTER": 330.1284, "MEAN_ANOMALY": 29.896, "EPHEMERIS_TYPE": 0, "CLASSIFICATION_TYPE": "U", "NORAD_CAT_ID": 66545, "ELEMENT_SET_NO": 999, "REV_AT_EPOCH": 245, "BSTAR": 0.0010120143, "MEAN_MOTION_DOT": 0.0001914, "MEAN_MOTION_DDOT": 0}, "tle": {"line1": "1 66545U 25266A   25339.30547142  .00019140  00000+0  10120-2 0  9995", "line2": "2 66545  51.7999   7.6886 0012814 330.1284  29.8960 15.15418106  2457"}}, "geometry": {"type": "Point", "coordinates": [123.85867288808907, 48.15773296524538]}}, {"type": "Feature", "properties": {"norad_id": 66546, "name": "SHIJIAN-30B", "group": "last-30-days", "lat": 49.750002983278144, "lon": 116.96540264988815, "alt_km": 517.1517287215547, "timestamp": "2025-12-05T18:53:12.097082+00:00", "meta": {"OBJECT_NAME": "SHIJIAN-30B", "OBJECT_ID": "2025-266B", "EPOCH": "2025-12-05T07:21:10.865664", "MEAN_MOTION": 15.1549224, "ECCENTRICITY": 0.001053, "INCLINATION": 51.7982, "RA_OF_ASC_NODE": 7.6922, "ARG_OF_PERICENTER": 333.2101, "MEAN_ANOMALY": 26.833, "EPHEMERIS_TYPE": 0, "CLASSIFICATION_TYPE": "U", "NORAD_CAT_ID": 66546, "ELEMENT_SET_NO": 999, "REV_AT_EPOCH": 245, "BSTAR": 0.0011638803, "MEAN_MOTION_DOT": 0.00022102, "MEAN_MOTION_DDOT": 0}, "tle": {"line1": "1 66546U 25266B   25339.30637576  .00022102  00000+0  11639-2 0  9995", "line2": "2 66546  51.7982   7.6922 0010530 333.2101  26.8330 15.15492240  2455"}}, "geometry": {"type": "Point", "coordinates": [116.96540264988815, 49.750002983278144]}}, {"type": "Feature", "properties": {"norad_id": 66547, "name": "SHIJIAN-30C", "group": "last-30-days", "lat": 50.724443124258784, "lon": 111.0912722283874, "alt_km": 517.7342663890167, "timestamp": "2025-12-05T18:53:12.097092+00:00", "meta": {"OBJECT_NAME": "SHIJIAN-30C", "OBJECT_ID": "2025-266C", "EPOCH": "2025-12-05T07:22:12.615744", "MEAN_MOTION": 15.15517162, "ECCENTRICITY": 0.00113748, "INCLINATION": 51.7993, "RA_OF_ASC_NODE": 7.6971, "ARG_OF_PERICENTER": 325.2753, "MEAN_ANOMALY": 34.748, "EPHEMERIS_TYPE": 0, "CLASSIFICATION_TYPE": "U", "NORAD_CAT_ID": 66547, "ELEMENT_SET_NO": 999, "REV_AT_EPOCH": 245, "BSTAR": 0.0010180878, "MEAN_MOTION_DOT": 0.00019304, "MEAN_MOTION_DDOT": 0}, "tle": {"line1": "1 66547U 25266C   25339.30709046  .00019304  00000+0  10181-2 0  9999", "line2": "2 66547  51.7993   7.6971 0011374 325.2753  34.7480 15.15517162  2458"}}, "geometry": {"type": "Point", "coordinates": [111.0912722283874, 50.724443124258784]}}, {"type": "Feature", "properties": {"norad_id": 66548, "name": "CZ-2C R/B", "group": "last-30-days", "lat": -43.32236298918441, "lon": -128.22188085546884, "alt_km": 480.8886897958455, "timestamp": "2025-12-05T18:53:12.097103+00:00", "meta": {"OBJECT_NAME": "CZ-2C R/B", "OBJECT_ID": "2025-266D", "EPOCH": "2025-12-05T06:52:21.594720", "MEAN_MOTION": 15.29936527, "ECCENTRICITY": 0.00845405, "INCLINATION": 52.056, "RA_OF_ASC_NODE": 6.7834, "ARG_OF_PERICENTER": 147.6878, "MEAN_ANOMALY": 212.9326, "EPHEMERIS_TYPE": 0, "CLASSIFICATION_TYPE": "U", "NORAD_CAT_ID": 66548, "ELEMENT_SET_NO": 999, "REV_AT_EPOCH": 247, "BSTAR": 0.00061125617, "MEAN_MOTION_DOT": 0.00019701, "MEAN_MOTION_DDOT": 0}, "tle": {"line1": "1 66548U 25266D   25339.28636105  .00019701  00000+0  61126-3 0  9999", "line2": "2 66548  52.0560   6.7834 0084540 147.6878 212.9326 15.29936527  2476"}}, "geometry": {"type": "Point", "coordinates": [-128.22188085546884, -43.32236298918441]}}, {"type": "Feature", "properties": {"norad_id": 66549, "name": "SHIJIAN-28", "group": "last-30-days", "lat": 10.634824987679941, "lon": 46.624683990680744, "alt_km": 1400.5586186184864, "timestamp": "2025-12-05T18:53:12.097114+00:00", "meta": {"OBJECT_NAME": "SHIJIAN-28", "OBJECT_ID": "2025-277A", "EPOCH": "2025-11-30T18:06:43.124256", "MEAN_MOTION": 2.28019775, "ECCENTRICITY": 0.7300519, "INCLINATION": 14.4344, "RA_OF_ASC_NODE": 275.4056, "ARG_OF_PERICENTER": 179.5026, "MEAN_ANOMALY": 182.358, "EPHEMERIS_TYPE": 0, "CLASSIFICATION_TYPE": "U", "NORAD_CAT_ID": 66549, "ELEMENT_SET_NO": 999, "REV_AT_EPOCH": 4, "BSTAR": 0.00062085, "MEAN_MOTION_DOT": 6.315e-05, "MEAN_MOTION_DDOT": 0}, "tle": {"line1": "1 66549U 25277A   25334.75466579  .00006315  00000+0  62085-3 0  9997", "line2": "2 66549  14.4344 275.4056 7300519 179.5026 182.3580  2.28019775    48"}}, "geometry": {"type": "Point", "coordinates": [46.624683990680744, 10.634824987679941]}}, {"type": "Feature", "properties": {"norad_id": 66550, "name": "CZ-7A R/B", "group": "last-30-days", "lat": 3.175826388215566, "lon": -74.22276189561889, "alt_km": 32521.40410425603, "timestamp": "2025-12-05T18:53:12.097129+00:00", "meta": {"OBJECT_NAME": "CZ-7A R/B", "OBJECT_ID": "2025-277B", "EPOCH": "2025-12-01T03:57:29.558880", "MEAN_MOTION": 2.40161271, "ECCENTRICITY": 0.72362879, "INCLINATION": 14.4278, "RA_OF_ASC_NODE": 275.378, "ARG_OF_PERICENTER": 178.5774, "MEAN_ANOMALY": 186.2906, "EPHEMERIS_TYPE": 0, "CLASSIFICATION_TYPE": "U", "NORAD_CAT_ID": 66550, "ELEMENT_SET_NO": 999, "REV_AT_EPOCH": 5, "BSTAR": 4.4603974e-05, "MEAN_MOTION_DOT": 0.00016399, "MEAN_MOTION_DDOT": -7.1945e-08}, "tle": {"line1": "1 66550U 25277B   25335.16492545  .00016399 -71945-7  44604-4 0  9993", "line2": "2 66550  14.4278 275.3780 7236287 178.5774 186.2906  2.40161271    57"}}, "geometry": {"type": "Point", "coordinates": [-74.22276189561889, 3.175826388215566]}}]}